{
    "links": {
        "self": "http://www.neowsapp.com/rest/v1/neo/3991585?api_key=iIulBulltgU6a56xZRHN4H3l9WmuAYTsLGpBGhQ2"
    },
    "id": "3991585",
    "neo_reference_id": "3991585",
    "name": "(2020 CO2)",
    "designation": "2020 CO2",
    "nasa_jpl_url": "http://ssd.jpl.nasa.gov/sbdb.cgi?sstr=3991585",
    "absolute_magnitude_h": 26.668,
    "estimated_diameter": {
        "kilometers": {
            "estimated_diameter_min": 0.01232977,
            "estimated_diameter_max": 0.0275702039
        },
        "meters": {
            "estimated_diameter_min": 12.3297700364,
            "estimated_diameter_max": 27.5702039483
        },
        "miles": {
            "estimated_diameter_min": 0.0076613615,
            "estimated_diameter_max": 0.0171313252
        },
        "feet": {
            "estimated_diameter_min": 40.4520027261,
            "estimated_diameter_max": 90.4534279217
        }
    },
    "is_potentially_hazardous_asteroid": false,
    "close_approach_data": [
        {
            "close_approach_date": "2020-02-19",
            "close_approach_date_full": "2020-Feb-19 20:36",
            "epoch_date_close_approach": 1582144560000,
            "relative_velocity": {
                "kilometers_per_second": "15.3495393246",
                "kilometers_per_hour": "55258.3415686892",
                "miles_per_hour": "34335.384515278"
            },
            "miss_distance": {
                "astronomical": "0.0099197044",
                "lunar": "3.8587650116",
                "kilometers": "1483966.649269628",
                "miles": "922094.1177837464"
            },
            "orbiting_body": "Earth"
        },
        {
            "close_approach_date": "2071-02-08",
            "close_approach_date_full": "2071-Feb-08 04:56",
            "epoch_date_close_approach": 3190596960000,
            "relative_velocity": {
                "kilometers_per_second": "20.9533005553",
                "kilometers_per_hour": "75431.8819989544",
                "miles_per_hour": "46870.4380120725"
            },
            "miss_distance": {
                "astronomical": "0.1730533731",
                "lunar": "67.3177621359",
                "kilometers": "25888416.012075297",
                "miles": "16086315.7775292186"
            },
            "orbiting_body": "Earth"
        },
        {
            "close_approach_date": "2138-07-12",
            "close_approach_date_full": "2138-Jul-12 23:00",
            "epoch_date_close_approach": 5318262000000,
            "relative_velocity": {
                "kilometers_per_second": "13.0518507727",
                "kilometers_per_hour": "46986.6627816984",
                "miles_per_hour": "29195.6849934392"
            },
            "miss_distance": {
                "astronomical": "0.0911865606",
                "lunar": "35.4715720734",
                "kilometers": "13641315.238385922",
                "miles": "8476320.2369408436"
            },
            "orbiting_body": "Earth"
        }
    ],
    "orbital_data": {
        "orbit_id": "4",
        "orbit_determination_date": "2020-04-08 06:20:15",
        "first_observation_date": "2020-02-14",
        "last_observation_date": "2020-02-19",
        "data_arc_in_days": 5,
        "observations_used": 49,
        "orbit_uncertainty": "8",
        "minimum_orbit_intersection": ".00129962",
        "jupiter_tisserand_invariant": "3.925",
        "epoch_osculation": "2458897.5",
        "eccentricity": ".5757104721894526",
        "semi_major_axis": "1.74772209992328",
        "inclination": ".5429156891245127",
        "ascending_node_longitude": "303.6730344255046",
        "orbital_period": "843.9311043325855",
        "perihelion_distance": ".7415401845205069",
        "perihelion_argument": "277.5864527840262",
        "aphelion_distance": "2.753904015326053",
        "perihelion_time": "2458944.597771881043",
        "mean_anomaly": "339.9092629835177",
        "mean_motion": ".4265751056594867",
        "equinox": "J2000",
        "orbit_class": {
            "orbit_class_type": "APO",
            "orbit_class_description": "Near-Earth asteroid orbits which cross the Earth’s orbit similar to that of 1862 Apollo",
            "orbit_class_range": "a (semi-major axis) > 1.0 AU; q (perihelion) < 1.017 AU"
        }
    },
    "is_sentry_object": false
}